[{"OBJECT_NAME":"YAOGAN-12","OBJECT_ID":"2011-066B","EPOCH":"2026-03-09T23:39:51.505056","MEAN_MOTION":15.25407482,"ECCENTRICITY":0.00091131,"INCLINATION":97.1283,"RA_OF_ASC_NODE":112.2403,"ARG_OF_PERICENTER":209.5466,"MEAN_ANOMALY":150.5259,"EPHEMERIS_TYPE":0,"CLASSIFICATION_TYPE":"U","NORAD_CAT_ID":37875,"ELEMENT_SET_NO":999,"REV_AT_EPOCH":79691,"BSTAR":0.0002218082,"MEAN_MOTION_DOT":5.54e-5,"MEAN_MOTION_DDOT":0},{"OBJECT_NAME":"STARLINK-35305","OBJECT_ID":"2025-268E","EPOCH":"2026-03-08T23:48:22.226688","MEAN_MOTION":15.27536182,"ECCENTRICITY":0.0001415,"INCLINATION":42.9995,"RA_OF_ASC_NODE":350.9526,"ARG_OF_PERICENTER":290.3728,"MEAN_ANOMALY":69.6972,"EPHEMERIS_TYPE":0,"CLASSIFICATION_TYPE":"U","NORAD_CAT_ID":66561,"ELEMENT_SET_NO":999,"REV_AT_EPOCH":1785,"BSTAR":-0.0011986283,"MEAN_MOTION_DOT":-0.00033055,"MEAN_MOTION_DDOT":0}]
